start=new Date('2022-03-09T00:00:00.000Z').valueOf();
sats=[{"OBJECT_ID":"2020-025AF","ELEMENT_SET_NO":"999","EPOCH":"2022-03-08T13:18:35.196192","SEMIMAJOR_AXIS":"6925.417","LAUNCH_DATE":"2020-04-22","COUNTRY_CODE":"US","EPHEMERIS_TYPE":"0","OBJECT_NAME":"STARLINK-1346","APOAPSIS":"548.264","DECAY_DATE":null,"REV_AT_EPOCH":"10513","PERIAPSIS":"546.300","SITE":"AFETR","OBJECT_TYPE":"PAYLOAD","TLE_LINE1":"1 45560U 20025AF  22067.55457403 -.00001806  00000-0 -10245-3 0  9991","REF_FRAME":"TEME","RA_OF_ASC_NODE":"160.4068","TIME_SYSTEM":"UTC","RCS_SIZE":"LARGE","INCLINATION":"53.0552","FILE":"3350976","MEAN_ANOMALY":"286.1581","PERIOD":"95.594","MEAN_MOTION":"15.06377519","GP_ID":"198238157","ECCENTRICITY":"0.00014180","ARG_OF_PERICENTER":"73.9564","MEAN_ELEMENT_THEORY":"SGP4","MEAN_MOTION_DDOT":"0.0000000000000","CLASSIFICATION_TYPE":"U","BSTAR":"-0.00010245000000","NORAD_CAT_ID":"45560","MEAN_MOTION_DOT":"-0.00001806","TLE_LINE2":"2 45560  53.0552 160.4068 0001418  73.9564 286.1581 15.06377519105130","CENTER_NAME":"EARTH"},{"APOAPSIS":"538.280","DECAY_DATE":null,"OBJECT_NAME":"STARLINK-1348","REV_AT_EPOCH":"10624","PERIAPSIS":"536.031","EPOCH":"2022-03-08T17:49:46.026912","SEMIMAJOR_AXIS":"6915.290","LAUNCH_DATE":"2020-04-22","OBJECT_ID":"2020-025AG","ELEMENT_SET_NO":"999","EPHEMERIS_TYPE":"0","COUNTRY_CODE":"US","MEAN_MOTION":"15.09687778","GP_ID":"198271854","ECCENTRICITY":"0.00016260","ARG_OF_PERICENTER":"47.0026","MEAN_ELEMENT_THEORY":"SGP4","PERIOD":"95.384","MEAN_ANOMALY":"313.1101","CLASSIFICATION_TYPE":"U","BSTAR":"0.00077030000000","MEAN_MOTION_DOT":"0.00012280","NORAD_CAT_ID":"45561","TLE_LINE2":"2 45561  53.0577  82.4956 0001626  47.0026 313.1101 15.09687778106249","CENTER_NAME":"EARTH","MEAN_MOTION_DDOT":"0.0000000000000","TLE_LINE1":"1 45561U 20025AG  22067.74289383  .00012280  00000-0  77030-3 0  9994","REF_FRAME":"TEME","SITE":"AFETR","OBJECT_TYPE":"PAYLOAD","INCLINATION":"53.0577","FILE":"3351330","RA_OF_ASC_NODE":"82.4956","RCS_SIZE":"LARGE","TIME_SYSTEM":"UTC"},{"ECCENTRICITY":"0.00016080","GP_ID":"198270602","MEAN_MOTION":"15.06371997","MEAN_ELEMENT_THEORY":"SGP4","ARG_OF_PERICENTER":"60.6170","MEAN_ANOMALY":"299.4979","PERIOD":"95.594","CLASSIFICATION_TYPE":"U","BSTAR":"-0.00020785000000","TLE_LINE2":"2 45562  53.0539 169.9994 0001608  60.6170 299.4979 15.06371997105004","CENTER_NAME":"EARTH","MEAN_MOTION_DOT":"-0.00003374","NORAD_CAT_ID":"45562","MEAN_MOTION_DDOT":"0.0000000000000","TLE_LINE1":"1 45562U 20025AH  22067.64211949 -.00003374  00000-0 -20785-3 0  9998","REF_FRAME":"TEME","OBJECT_TYPE":"PAYLOAD","SITE":"AFETR","FILE":"3351330","INCLINATION":"53.0539","TIME_SYSTEM":"UTC","RCS_SIZE":"LARGE","RA_OF_ASC_NODE":"169.9994","DECAY_DATE":null,"APOAPSIS":"548.413","OBJECT_NAME":"STARLINK-1354","PERIAPSIS":"546.186","REV_AT_EPOCH":"10500","SEMIMAJOR_AXIS":"6925.434","EPOCH":"2022-03-08T15:24:39.123936","LAUNCH_DATE":"2020-04-22","OBJECT_ID":"2020-025AH","ELEMENT_SET_NO":"999","EPHEMERIS_TYPE":"0","COUNTRY_CODE":"US"},{"COUNTRY_CODE":"US","EPHEMERIS_TYPE":"0","OBJECT_ID":"2020-025AJ","ELEMENT_SET_NO":"999","SEMIMAJOR_AXIS":"6925.363","EPOCH":"2022-03-08T14:10:20.213472","LAUNCH_DATE":"2020-04-22","REV_AT_EPOCH":"10499","PERIAPSIS":"546.369","OBJECT_NAME":"STARLINK-1355","DECAY_DATE":null,"APOAPSIS":"548.088","TIME_SYSTEM":"UTC","RCS_SIZE":"LARGE","RA_OF_ASC_NODE":"170.2488","FILE":"3351330","INCLINATION":"53.0551","OBJECT_TYPE":"PAYLOAD","SITE":"AFETR","TLE_LINE1":"1 45563U 20025AJ  22067.59051173 -.00002385  00000-0 -14127-3 0  9998","REF_FRAME":"TEME","MEAN_MOTION_DDOT":"0.0000000000000","CLASSIFICATION_TYPE":"U","BSTAR":"-0.00014127000000","CENTER_NAME":"EARTH","TLE_LINE2":"2 45563  53.0551 170.2488 0001241  79.1514 280.9614 15.06395138104993","MEAN_MOTION_DOT":"-0.00002385","NORAD_CAT_ID":"45563","PERIOD":"95.592","MEAN_ANOMALY":"280.9614","ECCENTRICITY":"0.00012410","GP_ID":"198270852","MEAN_MOTION":"15.06395138","MEAN_ELEMENT_THEORY":"SGP4","ARG_OF_PERICENTER":"79.1514"},{"FILE":"3351330","INCLINATION":"53.0545","RCS_SIZE":"LARGE","TIME_SYSTEM":"UTC","RA_OF_ASC_NODE":"169.6520","TLE_LINE1":"1 45564U 20025AK  22067.71951989 -.00001740  00000-0 -97992-4 0  9993","REF_FRAME":"TEME","OBJECT_TYPE":"PAYLOAD","SITE":"AFETR","BSTAR":"-0.00009799200000","CLASSIFICATION_TYPE":"U","TLE_LINE2":"2 45564  53.0545 169.6520 0001199  75.7150 284.3972 15.06383310105014","CENTER_NAME":"EARTH","MEAN_MOTION_DOT":"-0.00001740","NORAD_CAT_ID":"45564","MEAN_MOTION_DDOT":"0.0000000000000","ECCENTRICITY":"0.00011990","GP_ID":"198272104","MEAN_MOTION":"15.06383310","MEAN_ELEMENT_THEORY":"SGP4","ARG_OF_PERICENTER":"75.7150","PERIOD":"95.593","MEAN_ANOMALY":"284.3972","EPHEMERIS_TYPE":"0","COUNTRY_CODE":"US","SEMIMAJOR_AXIS":"6925.400","EPOCH":"2022-03-08T17:16:06.518496","LAUNCH_DATE":"2020-04-22","OBJECT_ID":"2020-025AK","ELEMENT_SET_NO":"999","PERIAPSIS":"546.434","REV_AT_EPOCH":"10501","DECAY_DATE":null,"APOAPSIS":"548.095","OBJECT_NAME":"STARLINK-1356"},{"LAUNCH_DATE":"2020-04-22","EPOCH":"2022-03-08T15:29:56.688000","SEMIMAJOR_AXIS":"6925.420","ELEMENT_SET_NO":"999","OBJECT_ID":"2020-025AL","EPHEMERIS_TYPE":"0","COUNTRY_CODE":"US","APOAPSIS":"548.281","DECAY_DATE":null,"OBJECT_NAME":"STARLINK-1357","PERIAPSIS":"546.289","REV_AT_EPOCH":"10500","REF_FRAME":"TEME","TLE_LINE1":"1 45565U 20025AL  22067.64579500  .00000333  00000-0  41276-4 0  9990","OBJECT_TYPE":"PAYLOAD","SITE":"AFETR","INCLINATION":"53.0531","FILE":"3351330","RA_OF_ASC_NODE":"169.9881","TIME_SYSTEM":"UTC","RCS_SIZE":"LARGE","ARG_OF_PERICENTER":"63.2088","MEAN_ELEMENT_THEORY":"SGP4","MEAN_MOTION":"15.06376571","GP_ID":"198272355","ECCENTRICITY":"0.00014380","PERIOD":"95.594","MEAN_ANOMALY":"296.9047","NORAD_CAT_ID":"45565","MEAN_MOTION_DOT":"0.00000333","CENTER_NAME":"EARTH","TLE_LINE2":"2 45565  53.0531 169.9881 0001438  63.2088 296.9047 15.06376571105003","BSTAR":"0.00004127600000","CLASSIFICATION_TYPE":"U","MEAN_MOTION_DDOT":"0.0000000000000"},{"MEAN_MOTION_DDOT":"0.0000000000000","NORAD_CAT_ID":"45566","MEAN_MOTION_DOT":"-0.00002411","TLE_LINE2":"2 45566  53.0546 169.9304 0001541  55.4859 304.6275 15.06388280105004","CENTER_NAME":"EARTH","BSTAR":"-0.00014307000000","CLASSIFICATION_TYPE":"U","PERIOD":"95.593","MEAN_ANOMALY":"304.6275","ARG_OF_PERICENTER":"55.4859","MEAN_ELEMENT_THEORY":"SGP4","MEAN_MOTION":"15.06388280","ECCENTRICITY":"0.00015410","GP_ID":"198271103","RA_OF_ASC_NODE":"169.9304","RCS_SIZE":"LARGE","TIME_SYSTEM":"UTC","INCLINATION":"53.0546","FILE":"3351330","OBJECT_TYPE":"PAYLOAD","SITE":"AFETR","REF_FRAME":"TEME","TLE_LINE1":"1 45566U 20025AM  22067.66053680 -.00002411  00000-0 -14307-3 0  9994","PERIAPSIS":"546.182","REV_AT_EPOCH":"10500","OBJECT_NAME":"STARLINK-1358","APOAPSIS":"548.317","DECAY_DATE":null,"COUNTRY_CODE":"US","EPHEMERIS_TYPE":"0","ELEMENT_SET_NO":"999","OBJECT_ID":"2020-025AM","LAUNCH_DATE":"2020-04-22","EPOCH":"2022-03-08T15:51:10.379520","SEMIMAJOR_AXIS":"6925.384"},{"REF_FRAME":"TEME","TLE_LINE1":"1 45567U 20025AN  22067.67160087  .00000769  00000-0  70549-4 0  9999","OBJECT_TYPE":"PAYLOAD","SITE":"AFETR","FILE":"3351330","INCLINATION":"53.0544","RCS_SIZE":"LARGE","TIME_SYSTEM":"UTC","RA_OF_ASC_NODE":"169.8662","MEAN_ELEMENT_THEORY":"SGP4","ARG_OF_PERICENTER":"79.8025","ECCENTRICITY":"0.00013200","GP_ID":"198271353","MEAN_MOTION":"15.06396811","PERIOD":"95.592","MEAN_ANOMALY":"280.3113","CENTER_NAME":"EARTH","TLE_LINE2":"2 45567  53.0544 169.8662 0001320  79.8025 280.3113 15.06396811105010","MEAN_MOTION_DOT":"0.00000769","NORAD_CAT_ID":"45567","BSTAR":"0.00007054900000","CLASSIFICATION_TYPE":"U","MEAN_MOTION_DDOT":"0.0000000000000","LAUNCH_DATE":"2020-04-22","SEMIMAJOR_AXIS":"6925.358","EPOCH":"2022-03-08T16:07:06.315168","ELEMENT_SET_NO":"999","OBJECT_ID":"2020-025AN","EPHEMERIS_TYPE":"0","COUNTRY_CODE":"US","DECAY_DATE":null,"APOAPSIS":"548.137","OBJECT_NAME":"STARLINK-1361","PERIAPSIS":"546.309","REV_AT_EPOCH":"10501"},{"CLASSIFICATION_TYPE":"U","BSTAR":"-0.00016606000000","MEAN_MOTION_DOT":"-0.00002753","NORAD_CAT_ID":"45568","TLE_LINE2":"2 45568  53.0544 170.2112 0001286  73.7258 286.3872 15.06383352104999","CENTER_NAME":"EARTH","MEAN_MOTION_DDOT":"0.0000000000000","MEAN_MOTION":"15.06383352","GP_ID":"198271604","ECCENTRICITY":"0.00012860","ARG_OF_PERICENTER":"73.7258","MEAN_ELEMENT_THEORY":"SGP4","MEAN_ANOMALY":"286.3872","PERIOD":"95.593","INCLINATION":"53.0544","FILE":"3351330","RA_OF_ASC_NODE":"170.2112","RCS_SIZE":"LARGE","TIME_SYSTEM":"UTC","TLE_LINE1":"1 45568U 20025AP  22067.59693711 -.00002753  00000-0 -16606-3 0  9996","REF_FRAME":"TEME","SITE":"AFETR","OBJECT_TYPE":"PAYLOAD","REV_AT_EPOCH":"10499","PERIAPSIS":"546.374","APOAPSIS":"548.155","DECAY_DATE":null,"OBJECT_NAME":"STARLINK-1363","EPHEMERIS_TYPE":"0","COUNTRY_CODE":"US","EPOCH":"2022-03-08T14:19:35.366304","SEMIMAJOR_AXIS":"6925.400","LAUNCH_DATE":"2020-04-22","OBJECT_ID":"2020-025AP","ELEMENT_SET_NO":"999"},{"RCS_SIZE":"LARGE","TIME_SYSTEM":"UTC","RA_OF_ASC_NODE":"170.4520","FILE":"3351144","INCLINATION":"53.0541","OBJECT_TYPE":"PAYLOAD","SITE":"AFETR","TLE_LINE1":"1 45569U 20025AQ  22067.54258276 -.00002527  00000-0 -15080-3 0  9999","REF_FRAME":"TEME","MEAN_MOTION_DDOT":"0.0000000000000","CLASSIFICATION_TYPE":"U","BSTAR":"-0.00015080000000","CENTER_NAME":"EARTH","TLE_LINE2":"2 45569  53.0541 170.4520 0001459  62.3979 297.7158 15.06400315104383","NORAD_CAT_ID":"45569","MEAN_MOTION_DOT":"-0.00002527","MEAN_ANOMALY":"297.7158","PERIOD":"95.592","ECCENTRICITY":"0.00014590","GP_ID":"198247731","MEAN_MOTION":"15.06400315","MEAN_ELEMENT_THEORY":"SGP4","ARG_OF_PERICENTER":"62.3979","COUNTRY_CODE":"US","EPHEMERIS_TYPE":"0","OBJECT_ID":"2020-025AQ","ELEMENT_SET_NO":"999","SEMIMAJOR_AXIS":"6925.348","EPOCH":"2022-03-08T13:01:19.150464","LAUNCH_DATE":"2020-04-22","PERIAPSIS":"546.202","REV_AT_EPOCH":"10438","OBJECT_NAME":"STARLINK-1366","DECAY_DATE":null,"APOAPSIS":"548.223"}];
